NORAD_CAT_ID,OBJECT_NAME,OBJECT_TYPE,EPOCH,MEAN_MOTION,ECCENTRICITY,INCLINATION,RA_OF_ASC_NODE,ARG_OF_PERICENTER,MEAN_ANOMALY,BSTAR,MEAN_MOTION_DOT,MEAN_MOTION_DDOT,TLE_LINE0,TLE_LINE1,TLE_LINE2,SEMIMAJOR_AXIS,PERIOD,APOGEE,PERIGEE,DECAYED
53820.0,STARLINK-4758,PAYLOAD,2024-05-03 14:33:20,15.08839018,0.000129,53.2174,94.9066,96.1369,263.977,9.5475e-06,-1.36e-06,0.0,0 STARLINK-4758,1 53820U 22114C   24124.60648689 -.00000136  00000-0  95475-5 0  9994,2 53820  53.2174  94.9066 0001290  96.1369 263.9770 15.08839018 90918,6917.883,95.438,540.641,538.856,0.0
53820.0,STARLINK-4758,PAYLOAD,2024-05-05 04:42:35,15.08843236,0.0001375,53.2167,87.7699,102.8775,257.2371,0.00020435,2.966e-05,0.0,0 STARLINK-4758,1 53820U 22114C   24126.19624516  .00002966  00000-0  20435-3 0  9997,2 53820  53.2167  87.7699 0001375 102.8775 257.2371 15.08843236 90619,6917.87,95.437,540.687,538.784,0.0
53820.0,STARLINK-4758,PAYLOAD,2024-05-05 07:53:22,15.08844058,0.0001292,53.2167,87.175,102.8316,257.2821,0.00011062,1.473e-05,0.0,0 STARLINK-4758,1 53820U 22114C   24126.32872689  .00001473  00000-0  11062-3 0  9996,2 53820  53.2167  87.1750 0001292 102.8316 257.2821 15.08844058 91175,6917.868,95.437,540.627,538.839,0.0
53820.0,STARLINK-4758,PAYLOAD,2024-05-06 04:33:23,15.0884052,0.0001198,53.2171,83.3077,86.8422,273.2707,3.603e-05,2.86e-06,0.0,0 STARLINK-4758,1 53820U 22114C   24127.18985223  .00000286  00000-0  36030-4 0  9994,2 53820  53.2171  83.3077 0001198  86.8422 273.2707 15.08840520 90769,6917.879,95.438,540.573,538.915,0.0
53820.0,STARLINK-4758,PAYLOAD,2024-05-06 14:05:41,15.08850149,0.0001273,53.2174,81.5232,86.0471,274.0667,7.2327e-05,8.64e-06,0.0,0 STARLINK-4758,1 53820U 22114C   24127.58728472  .00000864  00000-0  72327-4 0  9990,2 53820  53.2174  81.5232 0001273  86.0471 274.0667 15.08850149 90824,6917.849,95.437,540.595,538.834,0.0
53820.0,STARLINK-4758,PAYLOAD,2024-05-07 13:56:27,15.08854484,0.0001346,53.2172,77.065,97.6214,262.4931,7.4046e-05,8.91e-06,0.0,0 STARLINK-4758,1 53820U 22114C   24128.58087738  .00000891  00000-0  74046-4 0  9994,2 53820  53.2172  77.0650 0001346  97.6214 262.4931 15.08854484 91518,6917.836,95.437,540.632,538.77,0.0
53820.0,STARLINK-4758,PAYLOAD,2024-05-07 20:18:00,15.08846892,0.0002328,53.2172,75.877,84.0319,276.0939,0.00012399,1.686e-05,0.0,0 STARLINK-4758,1 53820U 22114C   24128.84584380  .00001686  00000-0  12399-3 0  9993,2 53820  53.2172  75.8770 0002328  84.0319 276.0939 15.08846892 91012,6917.859,95.437,541.335,538.114,0.0
53820.0,STARLINK-4758,PAYLOAD,2024-05-08 01:04:11,15.08833206,0.0001457,53.2179,74.9838,91.3621,268.7538,-1.4884e-05,-5.25e-06,0.0,0 STARLINK-4758,1 53820U 22114C   24129.04457438 -.00000525  00000-0 -14884-4 0  9994,2 53820  53.2179  74.9838 0001457  91.3621 268.7538 15.08833206 91044,6917.901,95.438,540.774,538.758,0.0
53820.0,STARLINK-4758,PAYLOAD,2024-05-08 13:47:15,15.08847038,0.0001376,53.2186,72.6026,98.9356,261.1792,6.3831e-05,7.28e-06,0.0,0 STARLINK-4758,1 53820U 22114C   24129.57448323  .00000728  00000-0  63831-4 0  9994,2 53820  53.2186  72.6026 0001376  98.9356 261.1792 15.08847038 91669,6917.859,95.437,540.676,538.772,0.0
53820.0,STARLINK-4758,PAYLOAD,2024-05-09 02:30:20,15.08842376,0.0001647,53.2204,70.2224,114.4023,245.7141,-7.3517e-05,-1.458e-05,0.0,0 STARLINK-4758,1 53820U 22114C   24130.10440967 -.00001458  00000-0 -73517-4 0  9996,2 53820  53.2204  70.2224 0001647 114.4023 245.7141 15.08842376 91206,6917.873,95.437,540.878,538.599,0.0
53820.0,STARLINK-4758,PAYLOAD,2024-05-09 05:41:07,15.08847118,0.0001706,53.2205,69.6268,119.1884,240.9279,-0.00010361,-1.937e-05,0.0,0 STARLINK-4758,1 53820U 22114C   24130.23688761 -.00001937  00000-0 -10361-3 0  9995,2 53820  53.2205  69.6268 0001706 119.1884 240.9279 15.08847118 91769,6917.859,95.437,540.904,538.543,0.0
53820.0,STARLINK-4758,PAYLOAD,2024-05-10 02:21:08,15.08831627,0.0001337,53.2195,65.7644,96.8167,263.2978,0.00015134,2.121e-05,0.0,0 STARLINK-4758,1 53820U 22114C   24131.09801374  .00002121  00000-0  15134-3 0  9994,2 53820  53.2195  65.7644 0001337  96.8167 263.2978 15.08831627 91354,6917.906,95.438,540.696,538.846,0.0
53820.0,STARLINK-4758,PAYLOAD,2024-05-10 05:31:54,15.08838029,0.0001359,53.2194,65.1693,95.7551,264.3596,8.5211e-05,1.068e-05,0.0,0 STARLINK-4758,1 53820U 22114C   24131.23049243  .00001068  00000-0  85211-4 0  9992,2 53820  53.2194  65.1693 0001359  95.7551 264.3596 15.08838029 91913,6917.886,95.438,540.692,538.811,0.0
53820.0,STARLINK-4758,PAYLOAD,2024-05-10 19:50:23,15.0882153,0.0001496,53.219,62.4933,92.0409,268.0754,0.00035834,5.417e-05,0.0,0 STARLINK-4758,1 53820U 22114C   24131.82665825  .00005417  00000-0  35834-3 0  9994,2 53820  53.2190  62.4933 0001496  92.0409 268.0754 15.08821530 92007,6917.937,95.439,540.837,538.767,0.0
53820.0,STARLINK-4758,PAYLOAD,2024-05-11 02:11:54,15.08860979,0.000143,53.2185,61.3016,105.4495,254.6656,0.00029218,4.368e-05,0.0,0 STARLINK-4758,1 53820U 22114C   24132.09160035  .00004368  00000-0  29218-3 0  9990,2 53820  53.2185  61.3016 0001430 105.4495 254.6656 15.08860979 91509,6917.816,95.436,540.671,538.692,0.0
53820.0,STARLINK-4758,PAYLOAD,2024-05-11 11:44:08,15.08908264,0.0001262,53.2204,59.5269,84.4478,275.6658,0.00052732,8.13e-05,0.0,0 STARLINK-4758,1 53820U 22114C   24132.48899061  .00008130  00000-0  52732-3 0  9999,2 53820  53.2204  59.5269 0001262  84.4478 275.6658 15.08908264 91561,6917.672,95.433,540.41,538.664,0.0
53820.0,STARLINK-4758,PAYLOAD,2024-05-11 19:41:08,15.08851113,9.92e-05,53.2185,58.0321,77.8621,282.2482,5.9588e-05,6.61e-06,0.0,0 STARLINK-4758,1 53820U 22114C   24132.82023194  .00000661  00000-0  59588-4 0  9991,2 53820  53.2185  58.0321 0000992  77.8621 282.2482 15.08851113 91612,6917.846,95.437,540.398,539.025,0.0
53820.0,STARLINK-4758,PAYLOAD,2024-05-11 22:51:56,15.0881555,0.0001976,53.2184,57.4393,13.533,346.5715,-0.0004314,-7.143e-05,0.0,0 STARLINK-4758,1 53820U 22114C   24132.95273233 -.00007143  00000-0 -43140-3 0  9996,2 53820  53.2184  57.4393 0001976  13.5330 346.5715 15.08815550 92170,6917.955,95.439,541.187,538.453,0.0
53820.0,STARLINK-4758,PAYLOAD,2024-05-12 05:13:30,15.08774532,0.0001195,53.2178,56.249,80.8252,279.2876,-0.0010101,-0.00016299,0.0,0 STARLINK-4758,1 53820U 22114C   24133.21771702 -.00016299  00000-0 -10101-2 0  9992,2 53820  53.2178  56.2490 0001195  80.8252 279.2876 15.08774532 91679,6918.081,95.442,540.772,539.119,0.0
53820.0,STARLINK-4758,PAYLOAD,2024-05-12 11:35:03,15.08774193,0.0001332,53.2192,55.0611,89.6955,270.419,-0.00093737,-0.00015148,0.0,0 STARLINK-4758,1 53820U 22114C   24133.48268513 -.00015148  00000-0 -93737-3 0  9991,2 53820  53.2192  55.0611 0001332  89.6955 270.4190 15.08774193 92257,6918.082,95.442,540.868,539.025,0.0
53820.0,STARLINK-4758,PAYLOAD,2024-05-12 19:31:59,15.08800502,0.0001689,53.2201,53.5746,92.7551,267.3634,-0.0004141,-6.865e-05,0.0,0 STARLINK-4758,1 53820U 22114C   24133.81388125 -.00006865  00000-0 -41410-3 0  9997,2 53820  53.2201  53.5746 0001689  92.7551 267.3634 15.08800502 91769,6918.001,95.44,541.035,538.698,0.0
53820.0,STARLINK-4758,PAYLOAD,2024-05-12 22:42:44,15.08821932,0.0002251,53.2202,52.9799,107.5072,252.6166,-9.1315e-05,-1.741e-05,0.0,0 STARLINK-4758,1 53820U 22114C   24133.94635230 -.00001741  00000-0 -91315-4 0  9991,2 53820  53.2202  52.9799 0002251 107.5072 252.6166 15.08821932 92320,6917.936,95.439,541.358,538.243,0.0
53820.0,STARLINK-4758,PAYLOAD,2024-05-13 03:28:54,15.08829067,0.00016,53.2191,52.0888,92.4867,267.6308,4.6518e-05,4.52e-06,0.0,0 STARLINK-4758,1 53820U 22114C   24134.14507167  .00000452  00000-0  46518-4 0  9992,2 53820  53.2191  52.0888 0001600  92.4867 267.6308 15.08829067 91812,6917.914,95.438,540.886,538.672,0.0
53820.0,STARLINK-4758,PAYLOAD,2024-05-13 11:25:49,15.08845932,0.0001162,53.2181,50.6003,90.4871,269.6254,2.8075e-05,1.59e-06,0.0,0 STARLINK-4758,1 53820U 22114C   24134.47626351  .00000159  00000-0  28075-4 0  9997,2 53820  53.2181  50.6003 0001162  90.4871 269.6254 15.08845932 91866,6917.862,95.437,540.531,538.923,0.0
53820.0,STARLINK-4758,PAYLOAD,2024-05-14 11:16:36,15.08865083,0.0001304,53.2179,46.1403,83.8767,276.2374,0.001061,0.0001665,0.0,0 STARLINK-4758,1 53820U 22114C   24135.46986378  .00016650  00000-0  10610-2 0  9992,2 53820  53.2179  46.1403 0001304  83.8767 276.2374 15.08865083 92558,6917.804,95.436,540.571,538.767,0.0
53820.0,STARLINK-4758,PAYLOAD,2024-05-14 22:24:18,15.08846348,0.0001756,53.218,44.058,91.1908,268.9285,0.00011024,1.467e-05,0.0,0 STARLINK-4758,1 53820U 22114C   24135.93354608  .00001467  00000-0  11024-3 0  9990,2 53820  53.2180  44.0580 0001756  91.1908 268.9285 15.08846348 92623,6917.861,95.437,540.941,538.511,0.0
53820.0,STARLINK-4758,PAYLOAD,2024-05-15 03:10:26,15.08865401,0.0001567,53.2172,43.1662,90.1369,269.9803,0.00023666,3.483e-05,0.0,0 STARLINK-4758,1 53820U 22114C   24136.13225639  .00003483  00000-0  23666-3 0  9999,2 53820  53.2172  43.1662 0001567  90.1369 269.9803 15.08865401 92117,6917.803,95.436,540.752,538.584,0.0
53820.0,STARLINK-4758,PAYLOAD,2024-05-15 17:28:54,15.08856537,0.0001729,53.2183,40.4894,95.2298,264.8891,0.00022099,3.232e-05,0.0,0 STARLINK-4758,1 53820U 22114C   24136.72841399  .00003232  00000-0  22099-3 0  9992,2 53820  53.2183  40.4894 0001729  95.2298 264.8891 15.08856537 92204,6917.83,95.437,540.891,538.499,0.0
53820.0,STARLINK-4758,PAYLOAD,2024-05-15 22:15:04,15.0884856,0.000171,53.2187,39.5963,96.5266,263.5921,0.00013234,1.819e-05,0.0,0 STARLINK-4758,1 53820U 22114C   24136.92713574  .00001819  00000-0  13234-3 0  9997,2 53820  53.2187  39.5963 0001710  96.5266 263.5921 15.08848560 92772,6917.854,95.437,540.902,538.536,0.0
53820.0,STARLINK-4758,PAYLOAD,2024-05-15 23:50:27,15.08847351,0.0001702,53.2189,39.2995,91.4881,268.6307,-6.558e-05,-1.332e-05,0.0,0 STARLINK-4758,1 53820U 22114C   24136.99337646 -.00001332  00000-0 -65580-4 0  9990,2 53820  53.2189  39.2995 0001702  91.4881 268.6307 15.08847351 92247,6917.858,95.437,540.9,538.546,0.0
